[{"OBJECT_NAME":"GEESAT-3 01","OBJECT_ID":"2024-159A","EPOCH":"2026-03-09T22:55:44.243616","MEAN_MOTION":14.83820553,"ECCENTRICITY":0.00031646,"INCLINATION":49.9988,"RA_OF_ASC_NODE":183.2096,"ARG_OF_PERICENTER":229.1953,"MEAN_ANOMALY":130.8711,"EPHEMERIS_TYPE":0,"CLASSIFICATION_TYPE":"U","NORAD_CAT_ID":61011,"ELEMENT_SET_NO":999,"REV_AT_EPOCH":8194,"BSTAR":0.00046731486,"MEAN_MOTION_DOT":3.69e-5,"MEAN_MOTION_DDOT":0},{"OBJECT_NAME":"COSMOS 2251 DEB","OBJECT_ID":"1993-036ANR","EPOCH":"2026-03-09T08:35:44.257632","MEAN_MOTION":14.86814371,"ECCENTRICITY":0.00155415,"INCLINATION":74.0451,"RA_OF_ASC_NODE":206.9387,"ARG_OF_PERICENTER":248.8833,"MEAN_ANOMALY":139.8715,"EPHEMERIS_TYPE":0,"CLASSIFICATION_TYPE":"U","NORAD_CAT_ID":35650,"ELEMENT_SET_NO":999,"REV_AT_EPOCH":88920,"BSTAR":0.001959274,"MEAN_MOTION_DOT":0.00017517,"MEAN_MOTION_DDOT":0}]
